satname,norad_id,inclination_deg,eccentricity,mean_motion_rev_per_day,perigee_km,apogee_km,l1,l2
STARLINK-1443,45660,53.0551,0.0001718,15.06402635,546.0137085597416,548.3932555493757,1 45660U 20035D   25364.42403005  .00004068  00000+0  29183-3 0  9992,2 45660  53.0551  17.5656 0001718 111.7928 248.3244 15.06402635308299
STARLINK-1446,45663,53.0272,0.0005653,15.39646563,443.2953112772084,451.01198488392856,1 45663U 20035G   25364.29780977  .00071049  00000+0  17673-2 0  9999,2 45663  53.0272 328.1877 0005653  60.9608 299.1961 15.39646563308971
STARLINK-1448,45665,53.0567,0.0001381,15.06386605,546.2962156828407,548.2090082936729,1 45665U 20035J   25364.42772809 -.00000229  00000+0  34943-5 0  9996,2 45665  53.0567  17.5457 0001381  88.2027 271.9120 15.06386605308286
STARLINK-1451,45668,53.0562,0.0001407,15.06398646,546.241310630392,548.1901048823547,1 45668U 20035M   25364.43144269  .00001688  00000+0  13218-3 0  9992,2 45668  53.0562  17.8490 0001407  89.6501 270.4649 15.06398646308294
STARLINK-1452,45669,53.0369,0.0002349,15.33704971,463.1623941426242,466.3771917539516,1 45669U 20035N   25364.33273924  .00114775  00000+0  34307-2 0  9996,2 45669  53.0369 349.2674 0002349 150.8278 209.2855 15.33704971308688
STARLINK-1453,45670,53.0546,0.000392,15.37986174,449.3876528381479,454.7425312783216,1 45670U 20035P   25364.91670139  .00147841  00000+0  38331-2 0  9992,2 45670  53.0546 340.9114 0003920  80.9334 100.3244 15.37986174  5594
STARLINK-1454,45671,53.0549,0.0001523,15.06400942,546.1539406997845,548.2634009911253,1 45671U 20035Q   25364.71891120  .00001268  00000+0  10403-3 0  9999,2 45671  53.0549  16.2433 0001523  91.1141 269.0023 15.06400942308327
STARLINK-1456,45673,53.0543,0.0002731,15.36074336,455.86440602732546,459.5981572827659,1 45673U 20035S   25364.44544662  .00051657  00000+0  14499-2 0  9992,2 45673  53.0543  15.1256 0002731  70.8296 289.3001 15.36074336308330
STARLINK-1457,45674,53.0514,0.0011093,15.5197648,403.42475377029314,418.48703526607005,1 45674U 20035T   25364.91670139  .00192348  00000+0  30703-2 0  9993,2 45674  53.0514   0.7614 0011093  35.4013  77.9576 15.51976480  5893
STARLINK-1458,45675,53.0547,0.0001294,15.06391486,546.3415087649373,548.1337957249389,1 45675U 20035U   25364.33188194 -.00002408  00000+0 -14282-3 0  9999,2 45675  53.0547  17.9755 0001294  91.7359 268.3778 15.06391486308248
STARLINK-1460,45676,53.055,0.0001381,15.06414421,546.2109754707608,548.1237445349934,1 45676U 20035V   25364.36873990  .00014871  00000+0  10147-2 0  9998,2 45676  53.0550  17.8125 0001381  89.1800 270.9347 15.06414421308248
STARLINK-1392,45677,53.055,0.0001499,15.06391886,546.1983128146712,548.2745397678736,1 45677U 20035W   25364.44614090 -.00003002  00000+0 -18274-3 0  9998,2 45677  53.0550  17.4660 0001499  87.5755 272.5406 15.06391886308298
STARLINK-1394,45679,53.0547,0.0001757,15.36739056,454.5591768397144,456.9606082077471,1 45679U 20035Y   25364.49320182  .00081153  00000+0  22151-2 0  9990,2 45679  53.0547   4.9762 0001757  80.4704 279.6497 15.36739056308479
STARLINK-1402,45685,53.0541,0.0007429,15.33656259,459.83098538171816,469.99839158046416,1 45685U 20035AE  25364.91670139  .00137853  00000+0  41095-2 0  9991,2 45685  53.0541 348.1040 0007429  28.7293  85.4804 15.33656259  5695
STARLINK-1404,45686,53.0546,0.0001429,15.06393158,546.242892456703,548.2221630677359,1 45686U 20035AF  25364.33649679  .00013036  00000+0  89260-3 0  9996,2 45686  53.0546   7.9603 0001429  81.2033 278.9117 15.06393158308425
STARLINK-1413,45689,53.055,0.0001264,15.06392939,546.3578321776895,548.1085657639896,1 45689U 20035AJ  25364.28856499 -.00001359  00000+0 -72377-4 0  9992,2 45689  53.0550   8.1707 0001264  85.0915 275.0218 15.06392939308324
STARLINK-1417,45693,53.0548,0.0004579,15.08562892,537.4224415799627,543.7586122491111,1 45693U 20035AN  25364.32204715  .00037469  00000+0  23772-2 0  9992,2 45693  53.0548   7.7158 0004579  36.1437 323.9862 15.08562892308416
STARLINK-1420,45695,53.0548,0.0001136,15.06398205,546.4303391390695,548.003779581356,1 45695U 20035AQ  25364.28578217 -.00002181  00000+0 -12759-3 0  9999,2 45695  53.0548 348.1740 0001136  89.3176 270.7943 15.06398205308695
STARLINK-1422,45696,53.0547,0.0001519,15.06419594,546.0995544772222,548.2034571252852,1 45696U 20035AR  25364.29593997  .00011016  00000+0  75687-3 0  9997,2 45696  53.0547   8.1415 0001519  85.9701 274.1462 15.06419594308406
STARLINK-1351,45697,53.0558,0.0001574,15.09958406,535.2386428338095,537.4153160945452,1 45697U 20035AS  25364.25455548  .00035567  00000+0  21738-2 0  9997,2 45697  53.0558 348.1450 0001574  92.5656 267.5514 15.09958406308697
STARLINK-1398,45699,53.0478,0.0007005,15.64356801,370.3585891866269,379.81985912667096,1 45699U 20035AU  25364.91670139  .00147930  00000+0  14936-2 0  9997,2 45699  53.0478 283.2422 0007005  89.3156 280.2200 15.64356801  5984
STARLINK-1400,45700,53.0566,0.0001488,15.06397747,546.1879701744883,548.2489559602973,1 45700U 20035AV  25364.37888271 -.00000057  00000+0  15066-4 0  9994,2 45700  53.0566 347.7673 0001488  99.3376 260.7781 15.06397747308706
STARLINK-1403,45701,53.0551,0.0001491,15.06422008,546.1115479960872,548.1766668223163,1 45701U 20035AW  25364.34200541  .00005225  00000+0  36916-3 0  9997,2 45701  53.0551 347.9350 0001491  92.9771 267.1388 15.06422008308698
STARLINK-1407,45703,53.0401,0.0005158,15.47316477,421.07121455821743,428.08889747320336,1 45703U 20035AY  25364.08849402  .00086838  00000+0  16630-2 0  9994,2 45703  53.0401 291.5927 0005158 229.8502 130.2053 15.47316477309478
STARLINK-1411,45706,53.0502,0.000234,15.50691966,413.1150106541145,416.2940604927626,1 45706U 20035BB  25364.83751641  .00080772  00000+0  13763-2 0  9992,2 45706  53.0502 314.8295 0002340 107.6382 252.4882 15.50691966309200
STARLINK-1423,45710,53.0564,0.0001378,15.06398027,546.2632910411576,548.1719187702702,1 45710U 20035BF  25364.23512762 -.00000066  00000+0  14475-4 0  9992,2 45710  53.0564 348.4120 0001378  86.4220 273.6927 15.06398027308687
STARLINK-1433,45711,53.0558,0.0001426,15.06393207,546.2448199099008,548.2199352563866,1 45711U 20035BG  25364.34938891 -.00002302  00000+0 -13571-3 0  9991,2 45711  53.0558 347.9007 0001426  75.5914 284.5234 15.06393207308690
STARLINK-1434,45712,53.0486,0.0002044,15.19552286,505.7853619359148,508.6000847268133,1 45712U 20035BH  25364.33476484  .00016577  00000+0  78316-3 0  9991,2 45712  53.0486 339.4469 0002044   5.9041 354.1977 15.19552286308825
STARLINK-1465,45731,53.053,0.000137,15.06394774,546.2787999751363,548.176349868665,1 45731U 20038B   25364.78064905  .00000114  00000+0  26555-4 0  9994,2 45731  53.0530 185.9586 0001370  94.0373 266.0772 15.06394774305809
STARLINK-1471,45735,53.0496,0.0001444,15.43933025,433.53122541242556,435.49871930204154,1 45735U 20038F   25364.68323056  .00033515  00000+0  73141-3 0  9995,2 45735  53.0496 111.3338 0001444  68.1262 291.9896 15.43933025306852
STARLINK-1474,45738,53.0323,0.0004114,15.8056768,326.0749797858698,331.59347571206126,1 45738U 20038J   25364.91670139  .00209973  00000+0  10559-2 0  9997,2 45738  53.0323  53.9434 0004114  49.6163 171.4451 15.80567680  5927
STARLINK-1480,45741,53.054,9.61e-05,15.36404944,456.09377268789285,457.4074380856482,1 45741U 20038M   25364.91670139  .00079658  00000+0  21984-2 0  9990,2 45741  53.0540 183.4355 0000961  84.3664 298.4435 15.36404944  5781
STARLINK-1500,45744,53.0375,0.0002333,15.30826251,471.7473833600907,474.9442852505781,1 45744U 20038Q   25364.69218463  .00053195  00000+0  17607-2 0  9991,2 45744  53.0375 155.4222 0002333  59.7374 300.3856 15.30826251306238
STARLINK-1504,45746,53.0248,0.0001255,15.47477005,423.25591131234523,424.963275207253,1 45746U 20038S   25364.59393617  .00044181  00000+0  85044-3 0  9993,2 45746  53.0248 114.2633 0001255  12.2740 347.8297 15.47477005306794
STARLINK-1506,45747,53.0738,0.0003262,15.23704325,492.43694073804454,496.9207658007181,1 45747U 20038T   25364.64885339  .00027345  00000+0  11338-2 0  9994,2 45747  53.0738 161.1236 0003262  74.0962 286.0394 15.23704325306155
STARLINK-1464,45751,53.0563,0.0001416,15.06390222,546.2608926627718,548.2221598614087,1 45751U 20038X   25364.83040992  .00000023  00000+0  20427-4 0  9993,2 45751  53.0563 165.7402 0001416  96.7655 263.3495 15.06390222306103
STARLINK-1477,45754,53.0508,0.0005944,15.09939595,532.274415275604,540.4943983240082,1 45754U 20038AA  25364.83252414  .00048116  00000+0  29300-2 0  9992,2 45754  53.0508 164.8941 0005944 146.9296 213.2068 15.09939595306118
STARLINK-1478,45755,53.0538,0.0001062,15.14186539,522.7163151150653,524.1822120374482,1 45755U 20038AB  25364.91670139  .02024342  00000+0  10011+0 0  9993,2 45755  53.0538 165.1927 0001062  78.7619 290.2880 15.14186539  5782
STARLINK-1484,45756,53.0121,0.0003544,15.73700454,345.94787457198527,350.7155956114175,1 45756U 20038AC  25364.91670139  .00109848  00000+0  76010-3 0  9992,2 45756  53.0121  44.4995 0003544  37.0368   4.7050 15.73700454  5703
STARLINK-1493,45759,53.0557,0.0001399,15.06397314,546.2509327387124,548.1886475685969,1 45759U 20038AF  25364.71982825  .00000902  00000+0  79423-4 0  9994,2 45759  53.0557 166.2337 0001399  89.1133 271.0016 15.06397314306074
STARLINK-1494,45760,53.0513,0.0002598,15.56954387,394.7173663640242,398.23745601207884,1 45760U 20038AG  25364.59806839  .00059826  00000+0  81589-3 0  9996,2 45760  53.0513 131.5067 0002598 198.1710 161.9208 15.56954387306565
STARLINK-1502,45764,53.0536,0.0001482,15.06395806,546.1980734127992,548.2507505353087,1 45764U 20038AL  25364.81934541  .00000434  00000+0  48039-4 0  9992,2 45764  53.0536 165.7889 0001482  90.0985 270.0173 15.06395806306103
STARLINK-1470,45772,53.0489,0.0004645,15.22216479,495.96204315008436,502.35104885432065,1 45772U 20038AU  25364.59911692  .00016389  00000+0  71667-3 0  9996,2 45772  53.0489 133.5429 0004645 126.2148 233.9278 15.22216479306536
